NORAD_CAT_ID,OBJECT_NAME,OBJECT_TYPE,EPOCH,MEAN_MOTION,ECCENTRICITY,INCLINATION,RA_OF_ASC_NODE,ARG_OF_PERICENTER,MEAN_ANOMALY,BSTAR,MEAN_MOTION_DOT,MEAN_MOTION_DDOT,TLE_LINE0,TLE_LINE1,TLE_LINE2,SEMIMAJOR_AXIS,PERIOD,APOGEE,PERIGEE,DECAYED
52847.0,STARLINK-4206,PAYLOAD,2024-04-18 16:34:17,15.08852351,0.0001195,53.2154,251.6423,88.8332,271.2797,0.00030857,4.628e-05,0.0,0 STARLINK-4206,1 52847U 22062T   24109.69048216  .00004628  00000-0  30857-3 0  9996,2 52847  53.2154 251.6423 0001195  88.8332 271.2797 15.08852351102117,6917.843,95.437,540.534,538.881,0.0
52847.0,STARLINK-4206,PAYLOAD,2024-04-19 13:14:19,15.08835416,0.000124,53.2158,247.7803,85.6317,274.4817,0.00044357,6.778e-05,0.0,0 STARLINK-4206,1 52847U 22062T   24110.55161205  .00006778  00000-0  44357-3 0  9995,2 52847  53.2158 247.7803 0001240  85.6317 274.4817 15.08835416102243,6917.894,95.438,540.617,538.902,0.0
52847.0,STARLINK-4206,PAYLOAD,2024-04-19 14:49:42,15.08835725,0.0001538,53.2161,247.4829,140.3569,219.7535,0.00039465,5.998e-05,0.0,0 STARLINK-4206,1 52847U 22062T   24110.61784903  .00005998  00000-0  39465-3 0  9995,2 52847  53.2161 247.4829 0001538 140.3569 219.7535 15.08835725101768,6917.893,95.438,540.822,538.694,0.0
52847.0,STARLINK-4206,PAYLOAD,2024-04-19 18:00:28,15.08825707,0.0001144,53.2168,246.8882,124.3506,235.7595,0.00034571,5.216e-05,0.0,0 STARLINK-4206,1 52847U 22062T   24110.75033120  .00005216  00000-0  34571-3 0  9994,2 52847  53.2168 246.8882 0001144 124.3506 235.7595 15.08825707101788,6917.924,95.438,540.58,538.998,0.0
52847.0,STARLINK-4206,PAYLOAD,2024-04-20 13:05:04,15.08865811,0.000103,53.2158,243.3163,128.2958,231.8127,0.00011885,1.605e-05,0.0,0 STARLINK-4206,1 52847U 22062T   24111.54518791  .00001605  00000-0  11885-3 0  9995,2 52847  53.2158 243.3163 0001030 128.2958 231.8127 15.08865811102395,6917.801,95.436,540.379,538.954,0.0
52847.0,STARLINK-4206,PAYLOAD,2024-04-20 14:40:28,15.08840566,0.000265,53.2172,243.0222,150.7636,209.3505,-0.00025801,-4.393e-05,0.0,0 STARLINK-4206,1 52847U 22062T   24111.61143678 -.00004393  00000-0 -25801-3 0  9993,2 52847  53.2172 243.0222 0002650 150.7636 209.3505 15.08840566101913,6917.879,95.438,541.577,537.91,0.0
52847.0,STARLINK-4206,PAYLOAD,2024-04-20 17:51:15,15.08818892,0.0001522,53.2171,242.4275,101.9392,258.177,-0.00048115,-7.933e-05,0.0,0 STARLINK-4206,1 52847U 22062T   24111.74393381 -.00007933  00000-0 -48115-3 0  9991,2 52847  53.2171 242.4275 0001522 101.9392 258.1770 15.08818892102427,6917.945,95.439,540.863,538.757,0.0
52847.0,STARLINK-4206,PAYLOAD,2024-04-21 14:31:16,15.08829311,0.0001557,53.2162,238.5662,84.7094,275.4076,-8.029e-05,-1.565e-05,0.0,0 STARLINK-4206,1 52847U 22062T   24112.60505521 -.00001565  00000-0 -80290-4 0  9994,2 52847  53.2162 238.5662 0001557  84.7094 275.4076 15.08829311102067,6917.913,95.438,540.855,538.701,0.0
52847.0,STARLINK-4206,PAYLOAD,2024-04-21 17:42:02,15.0884706,0.0001214,53.2165,237.9621,99.7042,260.4088,0.00016271,2.303e-05,0.0,0 STARLINK-4206,1 52847U 22062T   24112.73752563  .00002303  00000-0  16271-3 0  9994,2 52847  53.2165 237.9621 0001214  99.7042 260.4088 15.08847060102571,6917.859,95.437,540.564,538.884,0.0
52847.0,STARLINK-4206,PAYLOAD,2024-04-22 17:32:49,15.08849708,0.0001545,53.2182,233.5002,107.6867,252.4294,-6.6589e-06,-3.94e-06,0.0,0 STARLINK-4206,1 52847U 22062T   24113.73112443 -.00000394  00000-0 -66589-5 0  9991,2 52847  53.2182 233.5002 0001545 107.6867 252.4294 15.08849708102230,6917.851,95.437,540.785,538.647,0.0
52847.0,STARLINK-4206,PAYLOAD,2024-04-23 12:37:27,15.08839339,0.0002066,53.2173,229.9324,132.9582,227.1583,2.771e-05,1.53e-06,0.0,0 STARLINK-4206,1 52847U 22062T   24114.52601389  .00000153  00000-0  27710-4 0  9994,2 52847  53.2173 229.9324 0002066 132.9582 227.1583 15.08839339102846,6917.882,95.438,541.177,538.318,0.0
52847.0,STARLINK-4206,PAYLOAD,2024-04-23 14:12:50,15.08838078,0.0002015,53.2183,229.636,132.1533,227.9631,9.7462e-07,-2.73e-06,0.0,0 STARLINK-4206,1 52847U 22062T   24114.59225562 -.00000273  00000-0  97462-6 0  9993,2 52847  53.2183 229.6360 0002015 132.1533 227.9631 15.08838078102364,6917.886,95.438,541.145,538.357,0.0
52847.0,STARLINK-4206,PAYLOAD,2024-04-24 12:28:14,15.08828479,0.0002124,53.2177,225.4728,141.9094,218.2048,0.00022049,3.222e-05,0.0,0 STARLINK-4206,1 52847U 22062T   24115.51961494  .00003222  00000-0  22049-3 0  9999,2 52847  53.2177 225.4728 0002124 141.9094 218.2048 15.08828479102505,6917.916,95.438,541.25,538.311,0.0
52847.0,STARLINK-4206,PAYLOAD,2024-04-25 13:54:25,15.08827761,0.0001087,53.2173,220.7195,118.2312,241.879,5.7603e-05,6.29e-06,0.0,0 STARLINK-4206,1 52847U 22062T   24116.57946495  .00000629  00000-0  57603-4 0  9993,2 52847  53.2173 220.7195 0001087 118.2312 241.8790 15.08827761102660,6917.918,95.438,540.535,539.031,0.0
52847.0,STARLINK-4206,PAYLOAD,2024-04-26 13:45:12,15.08854239,0.0001447,53.216,216.2618,108.7366,251.3783,-0.00013854,-2.493e-05,0.0,0 STARLINK-4206,1 52847U 22062T   24117.57305711 -.00002493  00000-0 -13854-3 0  9996,2 52847  53.2160 216.2618 0001447 108.7366 251.3783 15.08854239103309,6917.837,95.437,540.703,538.701,0.0
52847.0,STARLINK-4206,PAYLOAD,2024-04-27 05:39:03,15.08840362,0.0001011,53.2156,213.2874,86.9166,273.1942,0.00023097,3.39e-05,0.0,0 STARLINK-4206,1 52847U 22062T   24118.23545808  .00003390  00000-0  23097-3 0  9998,2 52847  53.2156 213.2874 0001011  86.9166 273.1942 15.08840362103409,6917.879,95.438,540.444,539.045,0.0
52847.0,STARLINK-4206,PAYLOAD,2024-04-27 13:35:59,15.08848959,0.0001084,53.215,211.8007,86.9245,273.1871,0.00031225,4.686e-05,0.0,0 STARLINK-4206,1 52847U 22062T   24118.56665663  .00004686  00000-0  31225-3 0  9997,2 52847  53.2150 211.8007 0001084  86.9245 273.1871 15.08848959102964,6917.853,95.437,540.468,538.968,0.0
52847.0,STARLINK-4206,PAYLOAD,2024-04-27 16:46:45,15.08850065,0.0001197,53.2158,211.2064,91.4636,268.6493,0.00031963,4.804e-05,0.0,0 STARLINK-4206,1 52847U 22062T   24118.69913587  .00004804  00000-0  31963-3 0  9993,2 52847  53.2158 211.2064 0001197  91.4636 268.6493 15.08850065102981,6917.85,95.437,540.543,538.887,0.0
52847.0,STARLINK-4206,PAYLOAD,2024-04-27 23:08:16,15.08867263,0.0001416,53.2162,210.0165,67.5126,292.6016,0.00045013,6.888e-05,0.0,0 STARLINK-4206,1 52847U 22062T   24118.96408458  .00006888  00000-0  45013-3 0  9994,2 52847  53.2162 210.0165 0001416  67.5126 292.6016 15.08867263103513,6917.797,95.436,540.642,538.682,0.0
52847.0,STARLINK-4206,PAYLOAD,2024-04-28 13:26:46,15.08821272,0.0001424,53.2157,207.3417,79.9079,280.2074,-0.00039995,-6.644e-05,0.0,0 STARLINK-4206,1 52847U 22062T   24119.56026556 -.00006644  00000-0 -39995-3 0  9990,2 52847  53.2157 207.3417 0001424  79.9079 280.2074 15.08821272103606,6917.938,95.439,540.788,538.818,0.0
52847.0,STARLINK-4206,PAYLOAD,2024-04-28 15:02:10,15.08822476,0.000132,53.2147,207.0434,76.2116,283.9023,-0.00036231,-6.047e-05,0.0,0 STARLINK-4206,1 52847U 22062T   24119.62650543 -.00006047  00000-0 -36231-3 0  9993,2 52847  53.2147 207.0434 0001320  76.2116 283.9023 15.08822476103126,6917.934,95.439,540.712,538.886,0.0
52847.0,STARLINK-4206,PAYLOAD,2024-04-29 13:17:34,15.08838953,0.0001233,53.2144,202.8789,75.3083,284.8046,0.00068316,0.00010601,0.0,0 STARLINK-4206,1 52847U 22062T   24120.55386772  .00010601  00000-0  68316-3 0  9995,2 52847  53.2144 202.8789 0001233  75.3083 284.8046 15.08838953103756,6917.884,95.438,540.602,538.896,0.0
52847.0,STARLINK-4206,PAYLOAD,2024-04-30 11:32:57,15.08851778,0.0001553,53.2163,198.7151,90.2327,269.8843,0.00044821,6.855e-05,0.0,0 STARLINK-4206,1 52847U 22062T   24121.48122446  .00006855  00000-0  44821-3 0  9995,2 52847  53.2163 198.7151 0001553  90.2327 269.8843 15.08851778103405,6917.844,95.437,540.784,538.635,0.0
52847.0,STARLINK-4206,PAYLOAD,2024-04-30 22:40:39,15.08855156,0.0001481,53.2166,196.634,87.8484,272.2678,0.00039764,6.049e-05,0.0,0 STARLINK-4206,1 52847U 22062T   24121.94490128  .00006049  00000-0  39764-3 0  9996,2 52847  53.2166 196.6340 0001481  87.8484 272.2678 15.08855156103960,6917.834,95.437,540.724,538.675,0.0
52847.0,STARLINK-4206,PAYLOAD,2024-05-01 11:23:44,15.08851607,0.0001498,53.217,194.2561,85.9112,274.2051,0.00019975,2.893e-05,0.0,0 STARLINK-4206,1 52847U 22062T   24122.47481970  .00002893  00000-0  19975-3 0  9995,2 52847  53.2170 194.2561 0001498  85.9112 274.2051 15.08851607104043,6917.845,95.437,540.746,538.674,0.0
52847.0,STARLINK-4206,PAYLOAD,2024-05-02 04:52:59,15.08839439,0.0001449,53.2169,190.9847,86.5874,273.5284,-1.7786e-05,-5.71e-06,0.0,0 STARLINK-4206,1 52847U 22062T   24123.20346287 -.00000571  00000-0 -17786-4 0  9990,2 52847  53.2169 190.9847 0001449  86.5874 273.5284 15.08839439104150,6917.882,95.438,540.75,538.745,0.0
52847.0,STARLINK-4206,PAYLOAD,2024-05-02 11:14:32,15.08829207,0.0001334,53.2159,189.7954,86.7218,273.3927,-0.00012912,-2.342e-05,0.0,0 STARLINK-4206,1 52847U 22062T   24123.46842890 -.00002342  00000-0 -12912-3 0  9992,2 52847  53.2159 189.7954 0001334  86.7218 273.3927 15.08829207104199,6917.913,95.438,540.701,538.856,0.0
52847.0,STARLINK-4206,PAYLOAD,2024-05-03 03:08:23,15.08837904,0.000177,53.2142,186.8175,91.7146,268.4049,-4.8252e-05,-1.056e-05,0.0,0 STARLINK-4206,1 52847U 22062T   24124.13082705 -.00001056  00000-0 -48252-4 0  9996,2 52847  53.2142 186.8175 0001770  91.7146 268.4049 15.08837904104298,6917.887,95.438,540.976,538.527,0.0
52847.0,STARLINK-4206,PAYLOAD,2024-05-03 11:05:18,15.08849651,0.000107,53.2142,185.3355,79.4941,280.6172,0.00030157,4.516e-05,0.0,0 STARLINK-4206,1 52847U 22062T   24124.46202153  .00004516  00000-0  30157-3 0  9999,2 52847  53.2142 185.3355 0001070  79.4941 280.6172 15.08849651104342,6917.851,95.437,540.456,538.976,0.0
52847.0,STARLINK-4206,PAYLOAD,2024-05-03 20:37:35,15.08877022,0.0001394,53.2153,183.551,96.7123,263.4028,-0.00016164,-2.862e-05,0.0,0 STARLINK-4206,1 52847U 22062T   24124.85944064 -.00002862  00000-0 -16164-3 0  9992,2 52847  53.2153 183.5510 0001394  96.7123 263.4028 15.08877022104409,6917.767,95.435,540.597,538.668,0.0
